[Satellite]
VERSION=1.1
NAME=STARLINK-1339
NICKNAME=STARLINK-1339
TLE1=1 45533U 20025C   20141.58334491  .03827021  00000-0  52323-1 0  9993
TLE2=2 45533  52.9996 263.0774 0002989 335.7616 282.0308 15.53245466  5065
STATUS=0
